CARTOSAT-2E             
1 42767U 17036C   26078.86503257 -.00000354  00000+0 -13635-4 0  9997
2 42767  97.4384 140.0918 0002530 251.8259 108.2700 15.19271892484580
BULGARIASAT-1           
1 42801U 17038A   26078.84569709  .00000013  00000+0  00000+0 0  9997
2 42801   0.0173 171.8912 0003010 199.0264 112.8069  1.00267272 31943
IRIDIUM 113             
1 42803U 17039A   26078.86691122  .00000346  00000+0  11637-3 0  9998
2 42803  86.4032 359.5031 0002135  77.3805 282.7630 14.34216551458387
IRIDIUM 123             
1 42804U 17039B   26078.83859890 -.00000041  00000+0 -21723-4 0  9996
2 42804  86.3990  30.9632 0001871  87.9421 272.1989 14.34217229457140
IRIDIUM 120             
1 42805U 17039C   26078.86054663 -.00000007  00000+0 -95442-5 0  9997
2 42805  86.4015 359.2999 0002108  88.5621 271.5816 14.34217459458379
IRIDIUM 115             
1 42806U 17039D   26078.82045333  .00000339  00000+0  94653-4 0  9996
2 42806  86.4559 359.4332 0001986  93.4839 266.6589 14.43276903461370
IRIDIUM 118             
1 42807U 17039E   26078.87031228 -.00000010  00000+0 -10766-4 0  9991
2 42807  86.3989  30.9481 0002044  83.5117 276.6312 14.34217373457149
IRIDIUM 117             
1 42808U 17039F   26078.81957122  .00000191  00000+0  61087-4 0  9996
2 42808  86.3992  30.9275 0002049  86.7630 273.3800 14.34218004457165
IRIDIUM 126             
1 42809U 17039G   26078.84494092  .00000066  00000+0  16387-4 0  9996
2 42809  86.3995  30.9666 0002078  83.0732 277.0701 14.34217006457148
IRIDIUM 124             
1 42810U 17039H   26078.75455747  .00000310  00000+0  86084-4 0  9995
2 42810  86.4518 327.7723 0002093  86.3013 273.8427 14.43281922462219
IRIDIUM 128             
1 42811U 17039J   26078.20776252  .00000006  00000+0 -48067-5 0  9996
2 42811  86.3925  62.7606 0002125  94.4231 265.7208 14.34217532457087
IRIDIUM 121             
1 42812U 17039K   26078.86396995  .00000117  00000+0  34797-4 0  9997
2 42812  86.3992  30.9857 0002324  86.5389 273.6072 14.34217628457021
HELLAS-SAT 3            
1 42814U 17040A   26078.81156094  .00000155  00000+0  00000+0 0  9997
2 42814   0.0589  23.3381 0005242 338.4965 146.6806  1.00268881 31913
GSAT-17                 
1 42815U 17040B   26078.87330403 -.00000255  00000+0  00000+0 0  9994
2 42815   0.0258  84.8565 0004760 210.6341 289.7952  1.00271791 31898
INTELSAT 35E (IS-35E)   
1 42818U 17041A   26078.83850373 -.00000236  00000+0  00000+0 0  9996
2 42818   0.0158 229.6654 0001998 125.5088  89.5495  1.00272300 31918
KANOPUS-V-IK            
1 42825U 17042A   26078.85775104  .00000004  00000+0  31095-5 0  9991
2 42825  97.3638 346.1896 0001363  87.1400 272.9993 15.22638301481778
NORSAT 1                
1 42826U 17042B   26078.02772348  .00007000  00000+0  40126-3 0  9994
2 42826  97.4357 247.8674 0007751  43.3298 316.8541 15.12867595473591
NORSAT 2                
1 42828U 17042D   26078.29123828  .00009391  00000+0  43914-3 0  9991
2 42828  97.3977 253.3053 0009820  12.7297 347.4184 15.19941697474071
TECHNOSAT               
1 42829U 17042E   26078.87135293  .00003551  00000+0  25785-3 0  9993
2 42829  97.4152 240.0167 0018484  41.8072 318.4563 15.04358265473274
FLYING LAPTOP           
1 42831U 17042G   26078.84730964  .00002458  00000+0  19839-3 0  9997
2 42831  97.4290 238.0711 0019933  63.6839 296.6430 15.00582508473056
WNISAT 1R               
1 42835U 17042L   26078.32700690  .00003356  00000+0  26534-3 0  9995
2 42835  97.4556 237.7925 0013531 101.9386 258.3356 15.01230169473022
LEMUR-2-GREENBERG       
1 42837U 17042N   26078.28395385  .00011898  00000+0  43315-3 0  9999
2 42837  97.3777 259.5283 0008470 328.1275  31.9452 15.28336644474648
LEMUR-2-ANDIS           
1 42838U 17042P   26078.62593514  .00016200  00000+0  54209-3 0  9998
2 42838  97.3657 259.7888 0008640 326.7674  33.3023 15.31012337474739
LEMUR-2-MONSON          
1 42839U 17042Q   26078.23757878  .00011701  00000+0  46665-3 0  9999
2 42839  97.4034 259.5744 0006000 316.0464  44.0296 15.25328355474448
LEMUR-2-FURIAUS         
1 42840U 17042R   26078.00747695  .00018516  00000+0  70622-3 0  9993
2 42840  97.3744 257.4318 0007283  24.5907 335.5677 15.26704197474431
LEMUR-2-PETERG          
1 42841U 17042S   26078.03173668  .00019015  00000+0  65425-3 0  9990
2 42841  97.3974 263.1670 0003313 303.0799  57.0123 15.30105805474636
LEMUR-2-DEMBITZ         
1 42842U 17042T   26078.23797953  .00012773  00000+0  47972-3 0  9993
2 42842  97.3803 260.5818 0006314 341.9411  18.1602 15.27303696474600
NANOACE                 
1 42844U 17042V   26077.98276404  .00009145  00000+0  39951-3 0  9996
2 42844  97.3682 253.8573 0003750 343.5784  16.5330 15.22321968474340
LEMUR-2-ZACHARY         
1 42845U 17042W   26078.25333079  .00029050  00000+0  66272-3 0  9993
2 42845  97.3648 268.4467 0003367 341.6025  18.5100 15.42851237475301
CORVUS BC2              
1 42846U 17042X   26078.69623486  .00002135  00000+0  15157-3 0  9997
2 42846  97.3956 243.6097 0014458  62.1392 298.1298 15.05675776473597
CORVUS BC1              
1 42847U 17042Y   26078.23624011  .00002173  00000+0  15339-3 0  9997
2 42847  97.3991 243.9214 0013035  42.9921 317.2323 15.05884423473554
COSMOS 2520             
1 42907U 17046A   26078.71165921  .00000139  00000+0  00000+0 0  9996
2 42907   0.0279 117.4355 0000094 132.7466 228.2472  1.00270684 31504
TDRS 13                 
1 42915U 17047A   26078.84309707 -.00000096  00000+0  00000+0 0  9995
2 42915   3.4325   0.4349 0011015  98.8688  10.1232  1.00271574 31454
QZS-3 (MICHIBIKI-3)     
1 42917U 17048A   26078.85669826 -.00000346  00000+0  00000+0 0  9998
2 42917   0.0524 184.9789 0002301 185.6290 242.1945  1.00267708 31360
FORMOSAT-5              
1 42920U 17049A   26078.87969706  .00000138  00000+0  46191-4 0  9999
2 42920  98.2296 156.1665 0011056   6.3894 353.7440 14.50826469453720
ORS-5 SENSORSAT         
1 42921U 17050A   26078.83391631  .00002777  00000+0  14972-3 0  9996
2 42921   0.0485  90.4153 0010528 171.4575  98.0077 15.00559756467613
AMAZONAS 5              
1 42934U 17053A   26077.76377512 -.00000281  00000+0  00000+0 0  9998
2 42934   0.0565 328.6107 0005108  10.1448  51.5222  1.00271468 31133
COSMOS 2522 [GLONASS-M] 
1 42939U 17055A   26077.08663860  .00000017  00000+0  00000+0 0  9990
2 42939  64.0788 194.9824 0007767 230.0786 129.8384  2.13101941 66034
ASIASAT 9               
1 42942U 17057A   26078.88899807  .00000000  00000+0  00000+0 0  9999
2 42942   0.0281 133.5673 0002241 223.1999 262.8657  1.00264045 30962
YAOGAN-30 02A           
1 42945U 17058A   26078.85248892  .00003187  00000+0  23684-3 0  9998
2 42945  34.9966 213.8904 0001444  79.1571 280.9300 15.02573910462448
YAOGAN-30 02B           
1 42946U 17058B   26078.83326088  .00003058  00000+0  22885-3 0  9990
2 42946  34.9967 214.6594 0002750 260.5436  99.4961 15.02323859462419
YAOGAN-30 02C           
1 42947U 17058C   26078.79995333  .00002887  00000+0  20710-3 0  9995
2 42947  34.9966 206.8098 0004348 150.5265 209.5689 15.03931406462352
INTELSAT 37E (IS-37E)   
1 42950U 17059A   26078.84179707 -.00000138  00000+0  00000+0 0  9999
2 42950   0.0209 149.2875 0002019 211.2848 101.8590  1.00271778 31176
BSAT-4A                 
1 42951U 17059B   26078.81297824 -.00000348  00000+0  00000+0 0  9991
2 42951   0.0546  14.9592 0004204  13.8273 191.0798  1.00271451 30900
VRSS-2                  
1 42954U 17060A   26078.87555091  .00000779  00000+0  10667-3 0  9996
2 42954  97.6634 120.5840 0018024  36.4699 323.7738 14.81038394455236
IRIDIUM 133             
1 42955U 17061A   26078.86739264 -.00000037  00000+0 -20128-4 0  9996
2 42955  86.3928  62.6002 0002074  89.7753 270.3680 14.34217143441972
IRIDIUM 100             
1 42956U 17061B   26078.65174281  .00000118  00000+0  35201-4 0  9992
2 42956  86.3929  62.6106 0002201  90.0986 270.0462 14.34216404441945
IRIDIUM 122             
1 42957U 17061C   26078.20141864 -.00000006  00000+0 -91235-5 0  9993
2 42957  86.3926  62.7995 0001984  88.3488 271.7935 14.34217276441888
IRIDIUM 129             
1 42958U 17061D   26078.85470489  .00000143  00000+0  44057-4 0  9992
2 42958  86.3927  62.5916 0002338  79.8591 280.2869 14.34216136441992
IRIDIUM 119             
1 42959U 17061E   26078.89275927 -.00000188  00000+0 -74252-4 0  9998
2 42959  86.3926  62.5716 0001995  83.8134 276.3288 14.34215526442013
IRIDIUM 107             
1 42960U 17061F   26077.93502988  .00000014  00000+0 -21614-5 0  9996
2 42960  86.3924  62.9930 0001798  93.0361 267.1041 14.34217552441881
IRIDIUM 132             
1 42961U 17061G   26077.94137311 -.00000035  00000+0 -19462-4 0  9993
2 42961  86.3926  62.9706 0002031  89.7955 270.3474 14.34217225441880
IRIDIUM 136             
1 42962U 17061H   26078.04285407  .00000026  00000+0  23158-5 0  9992
2 42962  86.3926  62.9339 0002075  87.8074 272.3359 14.34217858441912
IRIDIUM 139             
1 42963U 17061J   26078.67711464 -.00000039  00000+0 -20952-4 0  9993
2 42963  86.3928  62.7295 0002069  90.6708 269.4725 14.34217152442016
IRIDIUM 125             
1 42964U 17061K   26078.87373350  .00000001  00000+0 -65324-5 0  9995
2 42964  86.3929  62.7067 0001537  81.8637 278.2733 14.34217298442059
QZS-4 (MICHIBIKI-4)     
1 42965U 17062A   26078.57104120 -.00000288  00000+0  00000+0 0  9992
2 42965  40.1631 344.6308 0748107 270.1202 268.5684  1.00276171 30908
SES-11 (ECHOSTAR 105)   
1 42967U 17063A   26078.68193243 -.00000087  00000+0  00000+0 0  9998
2 42967   0.0424  61.5406 0002407 294.9687 321.2643  1.00271465 30820
SENTINEL-5P             
1 42969U 17064A   26078.82512559  .00000055  00000+0  46966-4 0  9992
2 42969  98.7897  21.6057 0001151  92.5852 267.5456 14.19501677436885
KOREASAT 5A             
1 42984U 17067A   26078.87955574  .00000000  00000+0  00000+0 0  9999
2 42984   0.0165 171.1785 0001882 211.4502 224.5826  1.00267229 30635
